{
  "type": "FeatureCollection",
  "features": [
    {
      "type": "Feature",
      "properties": {
        "norad_id": 26766,
        "name": "INTELSAT 10 (IS-10)",
        "group": "intelsat",
        "lat": -4.417274504791409,
        "lon": 30.425655159964677,
        "alt_km": 36135.95276726625,
        "timestamp": "2025-12-05T09:41:18.789152+00:00",
        "meta_object_name": "INTELSAT 10 (IS-10)",
        "meta_object_id": "2001-019A",
        "meta_epoch": "2025-12-04T12:50:24.704160",
        "meta_mean_motion": 0.99078419,
        "meta_eccentricity": 0.0007804,
        "meta_inclination": 8.6091,
        "meta_ra_of_asc_node": 61.2371,
        "meta_arg_of_pericenter": 219.0537,
        "meta_mean_anomaly": 159.9231,
        "meta_ephemeris_type": 0,
        "meta_classification_type": "U",
        "meta_norad_cat_id": 26766,
        "meta_element_set_no": 999,
        "meta_rev_at_epoch": 4365,
        "meta_bstar": 0,
        "meta_mean_motion_dot": -1.87e-06,
        "meta_mean_motion_ddot": 0,
        "tle_line1": "1 26766U 01019A   25338.53500815 -.00000187  00000+0  00000+0 0  9991",
        "tle_line2": "2 26766   8.6091  61.2371 0007804 219.0537 159.9231  0.99078419 43654"
      },
      "geometry": {
        "type": "Point",
        "coordinates": [
          30.425655159964677,
          -4.417274504791409
        ]
      }
    },
    {
      "type": "Feature",
      "properties": {
        "norad_id": 26900,
        "name": "INTELSAT 902 (IS-902)",
        "group": "intelsat",
        "lat": 5.598349708833701,
        "lon": 169.6160654929833,
        "alt_km": 35782.93482029766,
        "timestamp": "2025-12-05T09:41:18.789176+00:00",
        "meta_object_name": "INTELSAT 902 (IS-902)",
        "meta_object_id": "2001-039A",
        "meta_epoch": "2025-12-01T16:59:59.311968",
        "meta_mean_motion": 1.00270327,
        "meta_eccentricity": 0.00043097,
        "meta_inclination": 5.6187,
        "meta_ra_of_asc_node": 74.2002,
        "meta_arg_of_pericenter": 175.119,
        "meta_mean_anomaly": 26.3816,
        "meta_ephemeris_type": 0,
        "meta_classification_type": "U",
        "meta_norad_cat_id": 26900,
        "meta_element_set_no": 999,
        "meta_rev_at_epoch": 8871,
        "meta_bstar": 0,
        "meta_mean_motion_dot": -2.63e-06,
        "meta_mean_motion_ddot": 0,
        "tle_line1": "1 26900U 01039A   25335.70832537 -.00000263  00000+0  00000+0 0  9993",
        "tle_line2": "2 26900   5.6187  74.2002 0004309 175.1190  26.3816  1.00270327 88713"
      },
      "geometry": {
        "type": "Point",
        "coordinates": [
          169.6160654929833,
          5.598349708833701
        ]
      }
    },
    {
      "type": "Feature",
      "properties": {
        "norad_id": 27380,
        "name": "INTELSAT 904 (IS-904)",
        "group": "intelsat",
        "lat": 5.733349693890813,
        "lon": -171.60125782041882,
        "alt_km": 35786.04553836837,
        "timestamp": "2025-12-05T09:41:18.789193+00:00",
        "meta_object_name": "INTELSAT 904 (IS-904)",
        "meta_object_id": "2002-007A",
        "meta_epoch": "2025-12-04T11:51:49.343904",
        "meta_mean_motion": 1.0026902,
        "meta_eccentricity": 0.0001665,
        "meta_inclination": 6.4331,
        "meta_ra_of_asc_node": 71.5255,
        "meta_arg_of_pericenter": 205.7795,
        "meta_mean_anomaly": 302.7127,
        "meta_ephemeris_type": 0,
        "meta_classification_type": "U",
        "meta_norad_cat_id": 27380,
        "meta_element_set_no": 999,
        "meta_rev_at_epoch": 4981,
        "meta_bstar": 0,
        "meta_mean_motion_dot": -2.15e-06,
        "meta_mean_motion_ddot": 0,
        "tle_line1": "1 27380U 02007A   25338.49432111 -.00000215  00000+0  00000+0 0  9992",
        "tle_line2": "2 27380   6.4331  71.5255 0001665 205.7795 302.7127  1.00269020 49811"
      },
      "geometry": {
        "type": "Point",
        "coordinates": [
          -171.60125782041882,
          5.733349693890813
        ]
      }
    },
    {
      "type": "Feature",
      "properties": {
        "norad_id": 27426,
        "name": "DIRECTV 5 (TEMPO 1)",
        "group": "intelsat",
        "lat": 2.3343088967023244,
        "lon": 109.56329389037285,
        "alt_km": 35801.12229034037,
        "timestamp": "2025-12-05T09:41:18.789207+00:00",
        "meta_object_name": "DIRECTV 5 (TEMPO 1)",
        "meta_object_id": "2002-023A",
        "meta_epoch": "2025-12-04T09:56:32.681760",
        "meta_mean_motion": 1.00271251,
        "meta_eccentricity": 0.0003839,
        "meta_inclination": 4.3795,
        "meta_ra_of_asc_node": 77.7499,
        "meta_arg_of_pericenter": 191.2769,
        "meta_mean_anomaly": 203.4731,
        "meta_ephemeris_type": 0,
        "meta_classification_type": "U",
        "meta_norad_cat_id": 27426,
        "meta_element_set_no": 999,
        "meta_rev_at_epoch": 8617,
        "meta_bstar": 0,
        "meta_mean_motion_dot": -4.4e-07,
        "meta_mean_motion_ddot": 0,
        "tle_line1": "1 27426U 02023A   25338.41426715 -.00000044  00000+0  00000+0 0  9996",
        "tle_line2": "2 27426   4.3795  77.7499 0003839 191.2769 203.4731  1.00271251 86173"
      },
      "geometry": {
        "type": "Point",
        "coordinates": [
          109.56329389037285,
          2.3343088967023244
        ]
      }
    },
    {
      "type": "Feature",
      "properties": {
        "norad_id": 27438,
        "name": "INTELSAT 905 (IS-905)",
        "group": "intelsat",
        "lat": 1.1624823419926198,
        "lon": 82.54612716962995,
        "alt_km": 35798.573956757486,
        "timestamp": "2025-12-05T09:41:18.789220+00:00",
        "meta_object_name": "INTELSAT 905 (IS-905)",
        "meta_object_id": "2002-027A",
        "meta_epoch": "2025-12-03T09:40:44.149728",
        "meta_mean_motion": 1.00273288,
        "meta_eccentricity": 0.00031296,
        "meta_inclination": 6.2606,
        "meta_ra_of_asc_node": 72.1621,
        "meta_arg_of_pericenter": 189.1417,
        "meta_mean_anomaly": 179.1858,
        "meta_ephemeris_type": 0,
        "meta_classification_type": "U",
        "meta_norad_cat_id": 27438,
        "meta_element_set_no": 999,
        "meta_rev_at_epoch": 4940,
        "meta_bstar": 0,
        "meta_mean_motion_dot": 1.09e-06,
        "meta_mean_motion_ddot": 0,
        "tle_line1": "1 27438U 02027A   25337.40328877  .00000109  00000+0  00000+0 0  9992",
        "tle_line2": "2 27438   6.2606  72.1621 0003129 189.1417 179.1858  1.00273288 49408"
      },
      "geometry": {
        "type": "Point",
        "coordinates": [
          82.54612716962995,
          1.1624823419926198
        ]
      }
    },
    {
      "type": "Feature",
      "properties": {
        "norad_id": 27445,
        "name": "GALAXY 3C (G-3C)",
        "group": "intelsat",
        "lat": 2.280334312655093,
        "lon": 124.8574982742086,
        "alt_km": 35783.18441423391,
        "timestamp": "2025-12-05T09:41:18.789234+00:00",
        "meta_object_name": "GALAXY 3C (G-3C)",
        "meta_object_id": "2002-030A",
        "meta_epoch": "2025-12-04T13:16:29.706240",
        "meta_mean_motion": 1.00270508,
        "meta_eccentricity": 0.0001286,
        "meta_inclination": 3.2425,
        "meta_ra_of_asc_node": 80.5894,
        "meta_arg_of_pericenter": 100.4367,
        "meta_mean_anomaly": 356.8628,
        "meta_ephemeris_type": 0,
        "meta_classification_type": "U",
        "meta_norad_cat_id": 27445,
        "meta_element_set_no": 999,
        "meta_rev_at_epoch": 4454,
        "meta_bstar": 0,
        "meta_mean_motion_dot": -1.39e-06,
        "meta_mean_motion_ddot": 0,
        "tle_line1": "1 27445U 02030A   25338.55312160 -.00000139  00000+0  00000+0 0  9993",
        "tle_line2": "2 27445   3.2425  80.5894 0001286 100.4367 356.8628  1.00270508 44540"
      },
      "geometry": {
        "type": "Point",
        "coordinates": [
          124.8574982742086,
          2.280334312655093
        ]
      }
    },
    {
      "type": "Feature",
      "properties": {
        "norad_id": 27513,
        "name": "INTELSAT 906 (IS-906)",
        "group": "intelsat",
        "lat": -2.564442539383765,
        "lon": -76.15044495070987,
        "alt_km": 35761.00209363631,
        "timestamp": "2025-12-05T09:41:18.789247+00:00",
        "meta_object_name": "INTELSAT 906 (IS-906)",
        "meta_object_id": "2002-041A",
        "meta_epoch": "2025-12-04T05:28:17.650848",
        "meta_mean_motion": 1.002733,
        "meta_eccentricity": 0.0006118,
        "meta_inclination": 5.3074,
        "meta_ra_of_asc_node": 75.3323,
        "meta_arg_of_pericenter": 192.8955,
        "meta_mean_anomaly": 311.2929,
        "meta_ephemeris_type": 0,
        "meta_classification_type": "U",
        "meta_norad_cat_id": 27513,
        "meta_element_set_no": 999,
        "meta_rev_at_epoch": 8507,
        "meta_bstar": 0,
        "meta_mean_motion_dot": 2.5e-07,
        "meta_mean_motion_ddot": 0,
        "tle_line1": "1 27513U 02041A   25338.22798207  .00000025  00000+0  00000+0 0  9998",
        "tle_line2": "2 27513   5.3074  75.3323 0006118 192.8955 311.2929  1.00273300 85070"
      },
      "geometry": {
        "type": "Point",
        "coordinates": [
          -76.15044495070987,
          -2.564442539383765
        ]
      }
    }
  ]
}